[{"OBJECT_NAME":"STARLINK-3177","OBJECT_ID":"2022-005AL","EPOCH":"2026-03-09T20:33:10.454400","MEAN_MOTION":15.08837828,"ECCENTRICITY":0.00015457,"INCLINATION":53.216,"RA_OF_ASC_NODE":298.3695,"ARG_OF_PERICENTER":100.4572,"MEAN_ANOMALY":259.6594,"EPHEMERIS_TYPE":0,"CLASSIFICATION_TYPE":"U","NORAD_CAT_ID":51138,"ELEMENT_SET_NO":999,"REV_AT_EPOCH":22875,"BSTAR":-6.1253365e-5,"MEAN_MOTION_DOT":-1.263e-5,"MEAN_MOTION_DDOT":0},{"OBJECT_NAME":"UNKNOWN","OBJECT_ID":"","EPOCH":"2026-03-07T17:21:07.805664","MEAN_MOTION":15.09455608,"ECCENTRICITY":0.0009057,"INCLINATION":82.8696,"RA_OF_ASC_NODE":177.6495,"ARG_OF_PERICENTER":167.3062,"MEAN_ANOMALY":192.8398,"EPHEMERIS_TYPE":0,"CLASSIFICATION_TYPE":"U","NORAD_CAT_ID":87725,"ELEMENT_SET_NO":999,"REV_AT_EPOCH":64668,"BSTAR":0.0060116,"MEAN_MOTION_DOT":0.00097492,"MEAN_MOTION_DDOT":0}]
